start=new Date('2022-12-12T00:00:00.000Z').valueOf();
sats=[{"PERIAPSIS":"546.130","ECCENTRICITY":"0.00015940","OBJECT_NAME":"STARLINK-1275","REF_FRAME":"TEME","INCLINATION":"53.0563","CENTER_NAME":"EARTH","TLE_LINE1":"1 45407U 20019AZ  22345.56375001  .00003926  00000-0  28236-3 0  9999","OBJECT_ID":"2020-019AZ","TIME_SYSTEM":"UTC","TLE_LINE2":"2 45407  53.0563  52.3685 0001594  68.2479 291.8680 15.06393248151381","SITE":"AFETR","EPHEMERIS_TYPE":"0","MEAN_MOTION":"15.06393248","APOAPSIS":"548.338","ELEMENT_SET_NO":"999","RA_OF_ASC_NODE":"52.3685","NORAD_CAT_ID":"45407","MEAN_MOTION_DOT":"0.00003926","PERIOD":"95.593","COUNTRY_CODE":"US","RCS_SIZE":"LARGE","ARG_OF_PERICENTER":"68.2479","REV_AT_EPOCH":"15138","MEAN_ANOMALY":"291.8680","GP_ID":"220048437","LAUNCH_DATE":"2020-03-18","MEAN_MOTION_DDOT":"0.0000000000000","EPOCH":"2022-12-11T13:31:48.000864","BSTAR":"0.00028236000000","OBJECT_TYPE":"PAYLOAD","SEMIMAJOR_AXIS":"6925.369","CLASSIFICATION_TYPE":"U","FILE":"3691213","DECAY_DATE":null,"MEAN_ELEMENT_THEORY":"SGP4"},{"SEMIMAJOR_AXIS":"6925.353","CLASSIFICATION_TYPE":"U","OBJECT_TYPE":"PAYLOAD","MEAN_ELEMENT_THEORY":"SGP4","FILE":"3691993","DECAY_DATE":null,"MEAN_MOTION_DDOT":"0.0000000000000","LAUNCH_DATE":"2020-03-18","EPOCH":"2022-12-11T17:01:29.711424","BSTAR":"0.00035113000000","GP_ID":"220093824","ARG_OF_PERICENTER":"54.7397","REV_AT_EPOCH":"15099","RCS_SIZE":"LARGE","MEAN_ANOMALY":"305.3750","RA_OF_ASC_NODE":"81.7203","COUNTRY_CODE":"US","PERIOD":"95.592","MEAN_MOTION_DOT":"0.00004952","NORAD_CAT_ID":"45408","SITE":"AFETR","TLE_LINE2":"2 45408  53.0546  81.7203 0001690  54.7397 305.3750 15.06398630150996","MEAN_MOTION":"15.06398630","APOAPSIS":"548.388","ELEMENT_SET_NO":"999","EPHEMERIS_TYPE":"0","OBJECT_ID":"2020-019BA","TIME_SYSTEM":"UTC","TLE_LINE1":"1 45408U 20019BA  22345.70937166  .00004952  00000-0  35113-3 0  9994","REF_FRAME":"TEME","INCLINATION":"53.0546","CENTER_NAME":"EARTH","PERIAPSIS":"546.047","ECCENTRICITY":"0.00016900","OBJECT_NAME":"STARLINK-1278"},{"TLE_LINE1":"1 45409U 20019BB  22345.83745484  .00001848  00000-0  14290-3 0  9993","OBJECT_ID":"2020-019BB","TIME_SYSTEM":"UTC","SITE":"AFETR","TLE_LINE2":"2 45409  53.0549  51.1415 0001493  40.8294 319.2806 15.06405263151436","EPHEMERIS_TYPE":"0","MEAN_MOTION":"15.06405263","APOAPSIS":"548.231","ELEMENT_SET_NO":"999","PERIAPSIS":"546.163","ECCENTRICITY":"0.00014930","OBJECT_NAME":"STARLINK-1282","REF_FRAME":"TEME","INCLINATION":"53.0549","CENTER_NAME":"EARTH","GP_ID":"220093575","BSTAR":"0.00014290000000","LAUNCH_DATE":"2020-03-18","MEAN_MOTION_DDOT":"0.0000000000000","EPOCH":"2022-12-11T20:05:56.098176","OBJECT_TYPE":"PAYLOAD","CLASSIFICATION_TYPE":"U","SEMIMAJOR_AXIS":"6925.332","FILE":"3691993","DECAY_DATE":null,"MEAN_ELEMENT_THEORY":"SGP4","RA_OF_ASC_NODE":"51.1415","MEAN_MOTION_DOT":"0.00001848","NORAD_CAT_ID":"45409","PERIOD":"95.592","COUNTRY_CODE":"US","RCS_SIZE":"LARGE","REV_AT_EPOCH":"15143","ARG_OF_PERICENTER":"40.8294","MEAN_ANOMALY":"319.2806"},{"ARG_OF_PERICENTER":"69.5098","REV_AT_EPOCH":"15137","RCS_SIZE":"LARGE","MEAN_ANOMALY":"290.6083","RA_OF_ASC_NODE":"52.8556","COUNTRY_CODE":"US","PERIOD":"95.593","NORAD_CAT_ID":"45411","MEAN_MOTION_DOT":"0.00004761","SEMIMAJOR_AXIS":"6925.380","CLASSIFICATION_TYPE":"U","OBJECT_TYPE":"PAYLOAD","MEAN_ELEMENT_THEORY":"SGP4","DECAY_DATE":null,"FILE":"3690851","MEAN_MOTION_DDOT":"0.0000000000000","LAUNCH_DATE":"2020-03-18","EPOCH":"2022-12-11T10:53:56.121792","BSTAR":"0.00033839000000","GP_ID":"220022622","INCLINATION":"53.0566","REF_FRAME":"TEME","CENTER_NAME":"EARTH","PERIAPSIS":"546.006","ECCENTRICITY":"0.00017900","OBJECT_NAME":"STARLINK-1293","TLE_LINE2":"2 45411  53.0566  52.8556 0001790  69.5098 290.6083 15.06389613151374","SITE":"AFETR","APOAPSIS":"548.485","ELEMENT_SET_NO":"999","MEAN_MOTION":"15.06389613","EPHEMERIS_TYPE":"0","TIME_SYSTEM":"UTC","OBJECT_ID":"2020-019BD","TLE_LINE1":"1 45411U 20019BD  22345.45412178  .00004761  00000-0  33839-3 0  9992"},{"MEAN_MOTION_DDOT":"0.0000000000000","LAUNCH_DATE":"2020-03-18","EPOCH":"2022-12-11T10:06:10.812672","BSTAR":"0.00094575000000","GP_ID":"220022636","SEMIMAJOR_AXIS":"6925.494","CLASSIFICATION_TYPE":"U","OBJECT_TYPE":"PAYLOAD","MEAN_ELEMENT_THEORY":"SGP4","FILE":"3690852","DECAY_DATE":null,"RA_OF_ASC_NODE":"52.9988","COUNTRY_CODE":"US","PERIOD":"95.595","NORAD_CAT_ID":"45412","MEAN_MOTION_DOT":"0.00013815","ARG_OF_PERICENTER":"325.4618","REV_AT_EPOCH":"15136","RCS_SIZE":"LARGE","MEAN_ANOMALY":"34.6278","OBJECT_ID":"2020-019BE","TIME_SYSTEM":"UTC","TLE_LINE1":"1 45412U 20019BE  22345.42095848  .00013815  00000-0  94575-3 0  9995","TLE_LINE2":"2 45412  53.0570  52.9988 0001417 325.4618  34.6278 15.06352670151362","SITE":"AFETR","MEAN_MOTION":"15.06352670","APOAPSIS":"548.340","ELEMENT_SET_NO":"999","EPHEMERIS_TYPE":"0","ECCENTRICITY":"0.00014170","PERIAPSIS":"546.377","OBJECT_NAME":"STARLINK-1296","REF_FRAME":"TEME","INCLINATION":"53.0570","CENTER_NAME":"EARTH"},{"RA_OF_ASC_NODE":"51.0767","PERIOD":"95.592","COUNTRY_CODE":"US","MEAN_MOTION_DOT":"0.00008426","NORAD_CAT_ID":"45413","REV_AT_EPOCH":"15152","ARG_OF_PERICENTER":"50.5563","RCS_SIZE":"LARGE","MEAN_ANOMALY":"309.5636","MEAN_MOTION_DDOT":"0.0000000000000","LAUNCH_DATE":"2020-03-18","EPOCH":"2022-12-11T20:21:52.255872","BSTAR":"0.00058376000000","GP_ID":"220094075","CLASSIFICATION_TYPE":"U","SEMIMAJOR_AXIS":"6925.329","OBJECT_TYPE":"PAYLOAD","MEAN_ELEMENT_THEORY":"SGP4","DECAY_DATE":null,"FILE":"3691993","PERIAPSIS":"545.552","ECCENTRICITY":"0.00023700","OBJECT_NAME":"STARLINK-1298","INCLINATION":"53.0567","REF_FRAME":"TEME","CENTER_NAME":"EARTH","TIME_SYSTEM":"UTC","OBJECT_ID":"2020-019BF","TLE_LINE1":"1 45413U 20019BF  22345.84852148  .00008426  00000-0  58376-3 0  9997","SITE":"AFETR","TLE_LINE2":"2 45413  53.0567  51.0767 0002370  50.5563 309.5636 15.06406466151521","ELEMENT_SET_NO":"999","APOAPSIS":"548.835","MEAN_MOTION":"15.06406466","EPHEMERIS_TYPE":"0"},{"OBJECT_NAME":"STARLINK-1309","PERIAPSIS":"545.914","ECCENTRICITY":"0.00019210","CENTER_NAME":"EARTH","REF_FRAME":"TEME","INCLINATION":"53.0552","OBJECT_ID":"2020-019BG","TIME_SYSTEM":"UTC","TLE_LINE1":"1 45414U 20019BG  22345.50203150  .00002873  00000-0  21178-3 0  9994","MEAN_MOTION":"15.06389910","APOAPSIS":"548.575","ELEMENT_SET_NO":"999","EPHEMERIS_TYPE":"0","SITE":"AFETR","TLE_LINE2":"2 45414  53.0552  52.6591 0001921  61.4682 298.6500 15.06389910151366","COUNTRY_CODE":"US","PERIOD":"95.593","NORAD_CAT_ID":"45414","MEAN_MOTION_DOT":"0.00002873","RA_OF_ASC_NODE":"52.6591","MEAN_ANOMALY":"298.6500","ARG_OF_PERICENTER":"61.4682","REV_AT_EPOCH":"15136","RCS_SIZE":"LARGE","EPOCH":"2022-12-11T12:02:55.521600","LAUNCH_DATE":"2020-03-18","MEAN_MOTION_DDOT":"0.0000000000000","BSTAR":"0.00021178000000","GP_ID":"220050189","MEAN_ELEMENT_THEORY":"SGP4","FILE":"3691213","DECAY_DATE":null,"SEMIMAJOR_AXIS":"6925.379","CLASSIFICATION_TYPE":"U","OBJECT_TYPE":"PAYLOAD"},{"CENTER_NAME":"EARTH","INCLINATION":"53.0557","REF_FRAME":"TEME","OBJECT_NAME":"STARLINK-1316","ECCENTRICITY":"0.00020370","PERIAPSIS":"545.816","ELEMENT_SET_NO":"999","APOAPSIS":"548.638","MEAN_MOTION":"15.06395594","EPHEMERIS_TYPE":"0","TLE_LINE2":"2 45415  53.0557  51.9422 0002037  40.9826 319.1316 15.06395594151424","SITE":"AFETR","TIME_SYSTEM":"UTC","OBJECT_ID":"2020-019BH","TLE_LINE1":"1 45415U 20019BH  22345.66053290  .00001929  00000-0  14842-3 0  9991","MEAN_ANOMALY":"319.1316","REV_AT_EPOCH":"15142","ARG_OF_PERICENTER":"40.9826","RCS_SIZE":"LARGE","PERIOD":"95.592","COUNTRY_CODE":"US","NORAD_CAT_ID":"45415","MEAN_MOTION_DOT":"0.00001929","RA_OF_ASC_NODE":"51.9422","MEAN_ELEMENT_THEORY":"SGP4","DECAY_DATE":null,"FILE":"3691993","CLASSIFICATION_TYPE":"U","SEMIMAJOR_AXIS":"6925.362","OBJECT_TYPE":"PAYLOAD","LAUNCH_DATE":"2020-03-18","EPOCH":"2022-12-11T15:51:10.042560","MEAN_MOTION_DDOT":"0.0000000000000","BSTAR":"0.00014842000000","GP_ID":"220095077"},{"OBJECT_ID":"2020-019BJ","TIME_SYSTEM":"UTC","TLE_LINE1":"1 45416U 20019BJ  22345.42832104  .00004549  00000-0  32421-3 0  9999","MEAN_MOTION":"15.06386110","ELEMENT_SET_NO":"999","APOAPSIS":"548.516","EPHEMERIS_TYPE":"0","TLE_LINE2":"2 45416  53.0543  52.9676 0001819  51.7783 308.3369 15.06386110151377","SITE":"AFETR","OBJECT_NAME":"STARLINK-1318","PERIAPSIS":"545.996","ECCENTRICITY":"0.00018190","CENTER_NAME":"EARTH","REF_FRAME":"TEME","INCLINATION":"53.0543","LAUNCH_DATE":"2020-03-18","BSTAR":"0.00032421000000","MEAN_MOTION_DDOT":"0.0000000000000","EPOCH":"2022-12-11T10:16:46.937856","GP_ID":"220022660","MEAN_ELEMENT_THEORY":"SGP4","FILE":"3690853","DECAY_DATE":null,"SEMIMAJOR_AXIS":"6925.391","CLASSIFICATION_TYPE":"U","OBJECT_TYPE":"PAYLOAD","PERIOD":"95.593","COUNTRY_CODE":"US","NORAD_CAT_ID":"45416","MEAN_MOTION_DOT":"0.00004549","RA_OF_ASC_NODE":"52.9676","MEAN_ANOMALY":"308.3369","REV_AT_EPOCH":"15137","ARG_OF_PERICENTER":"51.7783","RCS_SIZE":"LARGE"},{"INCLINATION":"53.0558","REF_FRAME":"TEME","CENTER_NAME":"EARTH","ECCENTRICITY":"0.00017260","PERIAPSIS":"545.998","OBJECT_NAME":"STARLINK-1286","TLE_LINE2":"2 45417  53.0558  81.7589 0001726  61.5888 298.5275 15.06406769151266","SITE":"AFETR","ELEMENT_SET_NO":"999","APOAPSIS":"548.388","MEAN_MOTION":"15.06406769","EPHEMERIS_TYPE":"0","TIME_SYSTEM":"UTC","OBJECT_ID":"2020-019BK","TLE_LINE1":"1 45417U 20019BK  22345.69831228  .00007019  00000-0  48958-3 0  9992","ARG_OF_PERICENTER":"61.5888","REV_AT_EPOCH":"15126","RCS_SIZE":"LARGE","MEAN_ANOMALY":"298.5275","RA_OF_ASC_NODE":"81.7589","PERIOD":"95.592","COUNTRY_CODE":"US","NORAD_CAT_ID":"45417","MEAN_MOTION_DOT":"0.00007019","CLASSIFICATION_TYPE":"U","SEMIMAJOR_AXIS":"6925.328","OBJECT_TYPE":"PAYLOAD","MEAN_ELEMENT_THEORY":"SGP4","DECAY_DATE":null,"FILE":"3691993","LAUNCH_DATE":"2020-03-18","EPOCH":"2022-12-11T16:45:34.180992","MEAN_MOTION_DDOT":"0.0000000000000","BSTAR":"0.00048958000000","GP_ID":"220093576"}];
